#aV2021  3 31  0  0  0.00000000     288 DD+AD WGS84 FIT  NGA
## 2151 259200.00000000   300.00000000 59304 0.0000000000000
+   32     1  2  3  4  5  6  7  8  9 10 11 12 13 14 15 16 17
+         18 19 20 21 22 23 24 25 26 27 28 29 30 31 32  0  0
+          0  0  0  0  0  0  0  0  0  0  0  0  0  0  0  0  0
+          0  0  0  0  0  0  0  0  0  0  0  0  0  0  0  0  0
+          0  0  0  0  0  0  0  0  0  0  0  0  0  0  0  0  0
++         2  2  2  2  2  2  2  2  2  2  2  2  2  2  2  2  2
++         2  2  2  2  2  2  2  2  2  2  2  2  2  2  2  0  0
++         0  0  0  0  0  0  0  0  0  0  0  0  0  0  0  0  0
++         0  0  0  0  0  0  0  0  0  0  0  0  0  0  0  0  0
++         0  0  0  0  0  0  0  0  0  0  0  0  0  0  0  0  0
%c cc cc ccc ccc cccc cccc cccc cccc ccccc ccccc ccccc ccccc
%c cc cc ccc ccc cccc cccc cccc cccc ccccc ccccc ccccc ccccc
%f  0.0000000  0.000000000  0.00000000000  0.000000000000000
%f  0.0000000  0.000000000  0.00000000000  0.000000000000000
%i    0    0    0    0      0      0      0      0         0
%i    0    0    0    0      0      0      0      0         0
/*      NGA, ST. LOUIS,MO.                                  
/*   EPHEMERIS COMPUTED FROM 2 DAYS OF DATA                 
/*   EPOCHA v5 SMOOTHER                                     
/*   G2139 IERS2010 SATIGS SATAPC                           
*  2021  3 31  7  5  0.00000000
P  1 -13961.796689  20587.788108   8547.627635    728.323683                    
V  1   1929.107776 -11335.713240  29933.552117     -0.093521                    
P  2  15075.293904    997.884390 -21194.524878   -591.271996                    
V  2  -7582.280875  27443.710074  -3940.634869     -0.035324                    
P  3 -18600.946094  12853.340845 -13926.854058   -123.346733                    
V  3 -17674.797794    908.669875  24690.443635     -0.108440                    
P  4  -9596.929169  12207.325278 -21537.735595   -189.277908                    
V  4 -17063.934628 -21400.665858  -4578.306261     -0.020709                    
P  5  26306.192930  -3835.989367  -2197.732041    -37.733910                    
V  5  -1975.017817   3280.727735 -31348.567184     -0.010590                    
P  6   8921.050272  14615.765156 -20224.862372      3.962348                    
V  6  -9836.004654  23841.324502  12907.288845      0.024352                    
P  7  -5762.113313  25215.610515   5065.592744    107.262806                    
V  7  -5339.934574   4496.920050 -30997.867915      0.119912                    
P  8 -15506.078632   4302.254622  21178.577911    -15.751641                    
V  8 -17046.637584 -20713.329349  -7973.535144     -0.013807                    
P  9    658.216861  19949.214203 -17566.958436   -335.356836                    
V  9 -15808.834515 -15725.051663 -18532.152672     -0.029018                    
P 10 -11057.395631 -12602.757779  20775.938946    -92.204139                    
V 10  25538.807831  -5092.004885  10301.887316     -0.078317                    
P 11 -10216.571547  18190.370588  16198.911415     16.267803                    
V 11  -5321.462111 -20894.441262  19204.225134      0.106769                    
P 12  21666.107949 -10068.733511 -11694.777411    -21.411606                    
V 12  14625.412918    681.632402  27242.333973     -0.050582                    
P 13  18468.319185   6169.255543  17989.370846    114.200291                    
V 13  11034.644189  20280.131758 -18023.409645      0.045143                    
P 14   9278.122064  13624.908379  20818.812782     98.725195                    
V 14 -26170.125391   4045.419447   8992.100207     -0.015115                    
P 15  15310.174808  -6452.046859  20422.692139   -159.445142                    
V 15  18758.281561  19170.589274  -7514.584333      0.026073                    
P 16 -26371.327230  -1299.058556  -4899.083210   -302.310975                    
V 16   5657.996782  -2367.321864 -30950.000496     -0.058505                    
P 17  13172.439532  22755.039350   4175.496245    418.632146                    
V 17  -4454.026225  -2636.167596  31658.074923      0.063429                    
P 18   3832.389234 -24940.394573   8187.836308    351.396913                    
V 18   6135.794576  -8768.634303 -29616.806179      0.004006                    
P 19  17253.227568  19641.910478  -5264.420799    -19.229944                    
V 19   1818.896872   6339.303567  31213.802566      0.050163                    
P 20   8813.389414 -16946.116665  18282.450509    523.658251                    
V 20  22977.484230  -5269.349421 -16225.783485     -0.003701                    
P 21 -16016.736237  14116.361283  16221.091065    107.361722                    
V 21   3447.390395 -19287.926844  21601.276060      0.029342                    
P 22 -23957.723669  10106.900209  -4713.156665   -648.698592                    
V 22  -7050.409782  -1988.917829  30486.307255      0.084543                    
P 23   1623.782103 -15525.890523  21462.963475    115.757732                    
V 23  26886.062797  -4757.098476  -5512.278590     -0.015290                    
P 24  15168.647710 -16859.364740  13256.678629      0.389927                    
V 24  -1902.001939  17632.874392  24550.597460     -0.004226                    
P 25   9024.285979 -15521.253899 -19744.417916    109.381276                    
V 25  24459.430963  -2851.683306  13873.992693      0.073765                    
P 26 -22124.021216  -5594.689038 -13867.313342     65.606767                    
V 26  16571.018941  -5988.506852 -23851.643652      0.052699                    
P 27 -20166.451029  -8102.041107  15351.439834   -104.041847                    
V 27 -11367.794241 -16053.077689 -22790.886678     -0.069698                    
P 28  11228.973084  13236.873034  20606.156195    594.029040                    
V 28 -24813.041886   2735.235819  12282.095455     -0.057754                    
P 29   -115.109237 -20089.565102 -17397.512204   -321.572492                    
V 29  13782.503337  17148.402758 -19984.390487     -0.067253                    
P 30   3835.166417  21102.158316  15571.337732   -406.167943                    
V 30  -9793.354382  17443.249742 -21526.018844     -0.053577                    
P 31 -11213.283863 -11802.383452 -20982.811260   -108.795322                    
V 31  10788.242190 -24295.741563   8388.795682     -0.022075                    
P 32 -15817.718042 -21342.872234   2270.267344     21.883768                    
V 32   3877.704130    328.472598  31397.835575      0.003377                    
EOF
